[{"OBJECT_NAME":"TECHNOSAT","OBJECT_ID":"2017-042E","EPOCH":"2026-03-09T21:27:07.546176","MEAN_MOTION":15.04288119,"ECCENTRICITY":0.00196291,"INCLINATION":97.4156,"RA_OF_ASC_NODE":230.4429,"ARG_OF_PERICENTER":75.0719,"MEAN_ANOMALY":285.2679,"EPHEMERIS_TYPE":0,"CLASSIFICATION_TYPE":"U","NORAD_CAT_ID":42829,"ELEMENT_SET_NO":999,"REV_AT_EPOCH":47177,"BSTAR":0.00032015047,"MEAN_MOTION_DOT":4.417e-5,"MEAN_MOTION_DDOT":0},{"OBJECT_NAME":"STARLINK-2712","OBJECT_ID":"2021-044AN","EPOCH":"2026-03-09T15:00:22.121856","MEAN_MOTION":15.0639571,"ECCENTRICITY":0.000137,"INCLINATION":53.0547,"RA_OF_ASC_NODE":112.0253,"ARG_OF_PERICENTER":89.9945,"MEAN_ANOMALY":270.1201,"EPHEMERIS_TYPE":0,"CLASSIFICATION_TYPE":"U","NORAD_CAT_ID":48674,"ELEMENT_SET_NO":999,"REV_AT_EPOCH":26383,"BSTAR":2.1925e-5,"MEAN_MOTION_DOT":4.5e-7,"MEAN_MOTION_DDOT":0}]
